NORAD_CAT_ID,OBJECT_NAME,OBJECT_TYPE,EPOCH,MEAN_MOTION,ECCENTRICITY,INCLINATION,RA_OF_ASC_NODE,ARG_OF_PERICENTER,MEAN_ANOMALY,BSTAR,MEAN_MOTION_DOT,MEAN_MOTION_DDOT,TLE_LINE0,TLE_LINE1,TLE_LINE2,SEMIMAJOR_AXIS,PERIOD,APOGEE,PERIGEE,DECAYED
49146.0,STARLINK-3116,PAYLOAD,2023-10-14 20:19:02,14.98326424,0.0002494,70.0016,325.2951,271.7288,88.3585,3.4264e-05,3.16e-06,0.0,0 STARLINK-3116,1 49146U 21082S   23287.84655923  .00000316  00000-0  34264-4 0  9994,2 49146  70.0016 325.2951 0002494 271.7288  88.3585 14.98326424116290,6950.204,96.107,573.802,570.336,0.0
49146.0,STARLINK-3116,PAYLOAD,2023-10-15 12:20:23,14.98321717,0.000301,69.999,323.6115,268.6195,91.4619,-7.0737e-05,-9.37e-06,0.0,0 STARLINK-3116,1 49146U 21082S   23288.51416543 -.00000937  00000-0 -70737-4 0  9998,2 49146  69.9990 323.6115 0003010 268.6195  91.4619 14.98321717116382,6950.219,96.108,574.176,569.991,0.0
49146.0,STARLINK-3116,PAYLOAD,2023-10-16 04:21:43,14.9833044,0.0002973,69.9989,321.9282,268.777,91.3048,7.1201e-05,7.57e-06,0.0,0 STARLINK-3116,1 49146U 21082S   23289.18175918  .00000757  00000-0  71201-4 0  9995,2 49146  69.9989 321.9282 0002973 268.7770  91.3048 14.98330440116493,6950.192,96.107,574.123,569.99,0.0
49146.0,STARLINK-3116,PAYLOAD,2023-10-16 12:22:24,14.98335547,0.0002947,69.9988,321.0866,267.388,92.6942,0.00012632,1.415e-05,0.0,0 STARLINK-3116,1 49146U 21082S   23289.51555579  .00001415  00000-0  12632-3 0  9991,2 49146  69.9988 321.0866 0002947 267.3880  92.6942 14.98335547116534,6950.176,96.107,574.089,569.993,0.0
49146.0,STARLINK-3116,PAYLOAD,2023-10-17 12:24:24,14.98335332,0.0002905,69.999,318.5616,267.9331,92.1496,0.0003154,3.673e-05,0.0,0 STARLINK-3116,1 49146U 21082S   23290.51695505  .00003673  00000-0  31540-3 0  9994,2 49146  69.9990 318.5616 0002905 267.9331  92.1496 14.98335332116690,6950.176,96.107,574.06,570.022,0.0
49146.0,STARLINK-3116,PAYLOAD,2023-10-17 18:48:56,14.98367533,0.0002548,70.0004,317.8886,272.646,87.4407,-0.00055957,-6.77e-05,0.0,0 STARLINK-3116,1 49146U 21082S   23290.78398171 -.00006770  00000-0 -55957-3 0  9993,2 49146  70.0004 317.8886 0002548 272.6460  87.4407 14.98367533116731,6950.077,96.105,573.713,570.171,0.0
49146.0,STARLINK-3116,PAYLOAD,2023-10-18 02:49:37,14.9833736,0.0002579,70.0002,317.0488,254.0565,106.031,0.00016359,1.86e-05,0.0,0 STARLINK-3116,1 49146U 21082S   23291.11779539  .00001860  00000-0  16359-3 0  9998,2 49146  70.0002 317.0488 0002579 254.0565 106.0310 14.98337360116773,6950.17,96.107,573.828,570.243,0.0
49146.0,STARLINK-3116,PAYLOAD,2023-10-18 10:50:17,14.98338324,0.0002743,69.9997,316.2076,257.4093,102.6759,0.00013975,1.575e-05,0.0,0 STARLINK-3116,1 49146U 21082S   23291.45159413  .00001575  00000-0  13975-3 0  9992,2 49146  69.9997 316.2076 0002743 257.4093 102.6759 14.98338324116830,6950.167,96.106,573.939,570.126,0.0
49146.0,STARLINK-3116,PAYLOAD,2023-10-18 18:50:57,14.9835439,0.0002364,70.0004,315.3653,266.9239,93.1649,-0.00033323,-4.069e-05,0.0,0 STARLINK-3116,1 49146U 21082S   23291.78538802 -.00004069  00000-0 -33323-3 0  9993,2 49146  70.0004 315.3653 0002364 266.9239  93.1649 14.98354390116887,6950.117,96.105,573.625,570.339,0.0
49146.0,STARLINK-3116,PAYLOAD,2023-10-19 04:27:46,14.98349054,0.0002758,69.9987,314.3536,268.2805,91.8038,-0.00014915,-1.873e-05,0.0,0 STARLINK-3116,1 49146U 21082S   23292.18594920 -.00001873  00000-0 -14915-3 0  9997,2 49146  69.9987 314.3536 0002758 268.2805  91.8038 14.98349054116949,6950.134,96.106,573.916,570.082,0.0
49146.0,STARLINK-3116,PAYLOAD,2023-10-19 10:52:18,14.9833931,0.0002738,69.9989,313.6807,268.6245,91.46,0.00010352,1.143e-05,0.0,0 STARLINK-3116,1 49146U 21082S   23292.45299003  .00001143  00000-0  10352-3 0  9990,2 49146  69.9989 313.6807 0002738 268.6245  91.4600 14.98339310116972,6950.164,96.106,573.932,570.126,0.0
49146.0,STARLINK-3116,PAYLOAD,2023-10-19 18:52:58,14.98332734,0.0002602,69.999,312.8392,269.0539,91.0322,0.00020723,2.381e-05,0.0,0 STARLINK-3116,1 49146U 21082S   23292.78679289  .00002381  00000-0  20723-3 0  9992,2 49146  69.9990 312.8392 0002602 269.0539  91.0322 14.98332734117033,6950.184,96.107,573.858,570.241,0.0
49146.0,STARLINK-3116,PAYLOAD,2023-10-20 10:54:19,14.98330148,0.0002501,69.9991,311.1551,265.4954,94.5919,5.7669e-05,5.95e-06,0.0,0 STARLINK-3116,1 49146U 21082S   23293.45439463  .00000595  00000-0  57669-4 0  9990,2 49146  69.9991 311.1551 0002501 265.4954  94.5919 14.98330148117129,6950.192,96.107,573.796,570.319,0.0
49146.0,STARLINK-3116,PAYLOAD,2023-10-21 10:56:20,14.98330298,0.0002441,69.9993,308.6296,270.9176,89.1703,4.6226e-05,4.59e-06,0.0,0 STARLINK-3116,1 49146U 21082S   23294.45579506  .00000459  00000-0  46226-4 0  9990,2 49146  69.9993 308.6296 0002441 270.9176  89.1703 14.98330298117282,6950.192,96.107,573.754,570.36,0.0
49146.0,STARLINK-3116,PAYLOAD,2023-10-21 18:57:00,14.98332972,0.0002576,69.9991,307.7875,273.6161,86.4703,7.0265e-05,7.46e-06,0.0,0 STARLINK-3116,1 49146U 21082S   23294.78959197  .00000746  00000-0  70265-4 0  9993,2 49146  69.9991 307.7875 0002576 273.6161  86.4703 14.98332972117322,6950.184,96.107,573.839,570.258,0.0
49146.0,STARLINK-3116,PAYLOAD,2023-10-22 10:58:21,14.98329115,0.0002644,69.9996,306.105,265.127,94.9588,8.8668e-05,9.65e-06,0.0,0 STARLINK-3116,1 49146U 21082S   23295.45719290  .00000965  00000-0  88668-4 0  9995,2 49146  69.9996 306.1050 0002644 265.1270  94.9588 14.98329115117430,6950.196,96.107,573.898,570.223,0.0
49146.0,STARLINK-3116,PAYLOAD,2023-10-23 11:00:23,14.98321518,0.0002355,69.9995,303.5798,255.3593,104.7305,8.7108e-05,9.46e-06,0.0,0 STARLINK-3116,1 49146U 21082S   23296.45859958  .00000946  00000-0  87108-4 0  9999,2 49146  69.9995 303.5798 0002355 255.3593 104.7305 14.98321518117589,6950.219,96.108,573.721,570.447,0.0
49146.0,STARLINK-3116,PAYLOAD,2023-10-23 17:24:55,14.98321331,0.0002481,69.9993,302.9052,262.4162,97.6715,0.00019871,2.278e-05,0.0,0 STARLINK-3116,1 49146U 21082S   23296.72563856  .00002278  00000-0  19871-3 0  9999,2 49146  69.9993 302.9052 0002481 262.4162  97.6715 14.98321331117616,6950.22,96.108,573.809,570.36,0.0
49146.0,STARLINK-3116,PAYLOAD,2023-10-24 04:37:51,14.983354,0.0002656,69.9984,301.7273,271.6094,88.476,2.6325e-05,2.21e-06,0.0,0 STARLINK-3116,1 49146U 21082S   23297.19295188  .00000221  00000-0  26325-4 0  9990,2 49146  69.9984 301.7273 0002656 271.6094  88.4760 14.98335400117696,6950.176,96.107,573.887,570.195,0.0
49146.0,STARLINK-3116,PAYLOAD,2023-10-24 11:02:23,14.98324871,0.0002093,69.9993,301.0546,264.6953,95.3967,0.00011625,1.294e-05,0.0,0 STARLINK-3116,1 49146U 21082S   23297.45999812  .00001294  00000-0  11625-3 0  9991,2 49146  69.9993 301.0546 0002093 264.6953  95.3967 14.98324871117734,6950.209,96.107,573.528,570.619,0.0
49146.0,STARLINK-3116,PAYLOAD,2023-10-25 11:04:24,14.98329179,0.0002571,69.9992,298.5287,268.2251,91.8614,0.00010676,1.181e-05,0.0,0 STARLINK-3116,1 49146U 21082S   23298.46139290  .00001181  00000-0  10676-3 0  9999,2 49146  69.9992 298.5287 0002571 268.2251  91.8614 14.98329179117889,6950.195,96.107,573.847,570.274,0.0
49146.0,STARLINK-3116,PAYLOAD,2023-10-26 09:30:17,14.9833121,0.0002468,69.9985,296.1718,258.4558,101.6324,5.5657e-05,5.71e-06,0.0,0 STARLINK-3116,1 49146U 21082S   23299.39603172  .00000571  00000-0  55657-4 0  9998,2 49146  69.9985 296.1718 0002468 258.4558 101.6324 14.98331210118013,6950.189,96.107,573.769,570.339,0.0
49146.0,STARLINK-3116,PAYLOAD,2023-10-26 17:30:57,14.98330533,0.0002808,69.9985,295.3297,270.5416,89.5421,3.6601e-05,3.44e-06,0.0,0 STARLINK-3116,1 49146U 21082S   23299.72983239  .00000344  00000-0  36601-4 0  9996,2 49146  69.9985 295.3297 0002808 270.5416  89.5421 14.98330533118077,6950.191,96.107,574.008,570.105,0.0
49146.0,STARLINK-3116,PAYLOAD,2023-10-27 09:32:17,14.98334552,0.0002754,69.9982,293.6463,266.4329,93.6515,8.6027e-05,9.34e-06,0.0,0 STARLINK-3116,1 49146U 21082S   23300.39742795  .00000934  00000-0  86027-4 0  9994,2 49146  69.9982 293.6463 0002754 266.4329  93.6515 14.98334552118162,6950.179,96.107,573.958,570.13,0.0
49146.0,STARLINK-3116,PAYLOAD,2023-10-27 23:57:30,14.98330434,0.0002882,69.9982,292.1312,268.7659,91.317,6.7338e-05,7.11e-06,0.0,0 STARLINK-3116,1 49146U 21082S   23300.99826986  .00000711  00000-0  67338-4 0  9992,2 49146  69.9982 292.1312 0002882 268.7659  91.3170 14.98330434118260,6950.192,96.107,574.06,570.054,0.0
49146.0,STARLINK-3116,PAYLOAD,2023-10-28 09:34:18,14.98327099,0.0002907,69.9985,291.1225,270.3885,89.6941,0.00014033,1.582e-05,0.0,0 STARLINK-3116,1 49146U 21082S   23301.39883100  .00001582  00000-0  14033-3 0  9998,2 49146  69.9985 291.1225 0002907 270.3885  89.6941 14.98327099118318,6950.202,96.107,574.087,570.046,0.0
49146.0,STARLINK-3116,PAYLOAD,2023-10-29 04:47:55,14.98336579,0.0002646,69.999,289.1025,271.1929,88.8927,2.034e-05,1.5e-06,0.0,0 STARLINK-3116,1 49146U 21082S   23302.19994787  .00000150  00000-0  20340-4 0  9990,2 49146  69.9990 289.1025 0002646 271.1929  88.8927 14.98336579118449,6950.173,96.107,573.877,570.199,0.0
49146.0,STARLINK-3116,PAYLOAD,2023-10-29 09:36:19,14.98336806,0.0002612,69.999,288.5977,261.7298,98.3565,0.00014609,1.651e-05,0.0,0 STARLINK-3116,1 49146U 21082S   23302.40022459  .00001651  00000-0  14609-3 0  9999,2 49146  69.9990 288.5977 0002612 261.7298  98.3565 14.98336806118464,6950.172,96.107,573.852,570.221,0.0
49146.0,STARLINK-3116,PAYLOAD,2023-10-29 16:00:51,14.98349415,0.0002406,70.0002,287.9227,274.4003,85.6881,-0.00031382,-3.837e-05,0.0,0 STARLINK-3116,1 49146U 21082S   23302.66726428 -.00003837  00000-0 -31382-3 0  9991,2 49146  70.0002 287.9227 0002406 274.4003  85.6881 14.98349415118503,6950.133,96.106,573.67,570.326,0.0
49146.0,STARLINK-3116,PAYLOAD,2023-10-30 04:49:56,14.98327873,0.0002812,69.999,286.5768,276.3366,83.7472,6.6024e-05,6.95e-06,0.0,0 STARLINK-3116,1 49146U 21082S   23303.20135208  .00000695  00000-0  66024-4 0  9991,2 49146  69.9990 286.5768 0002812 276.3366  83.7472 14.98327873118593,6950.199,96.107,574.019,570.11,0.0
